[{"OBJECT_NAME":"TEVEL2-1","OBJECT_ID":"2025-052H","EPOCH":"2026-03-09T15:32:51.927072","MEAN_MOTION":15.30341923,"ECCENTRICITY":0.0004767,"INCLINATION":97.3991,"RA_OF_ASC_NODE":324.7682,"ARG_OF_PERICENTER":104.8919,"MEAN_ANOMALY":255.2849,"EPHEMERIS_TYPE":0,"CLASSIFICATION_TYPE":"U","NORAD_CAT_ID":63217,"ELEMENT_SET_NO":999,"REV_AT_EPOCH":5485,"BSTAR":0.000706,"MEAN_MOTION_DOT":0.00020683,"MEAN_MOTION_DDOT":0},{"OBJECT_NAME":"STARLINK-35535","OBJECT_ID":"2025-253Z","EPOCH":"2026-03-09T10:18:08.145216","MEAN_MOTION":15.27599353,"ECCENTRICITY":0.00034743,"INCLINATION":42.9996,"RA_OF_ASC_NODE":214.0608,"ARG_OF_PERICENTER":290.0123,"MEAN_ANOMALY":70.0355,"EPHEMERIS_TYPE":0,"CLASSIFICATION_TYPE":"U","NORAD_CAT_ID":66342,"ELEMENT_SET_NO":999,"REV_AT_EPOCH":2020,"BSTAR":0.0015501962,"MEAN_MOTION_DOT":0.00042673,"MEAN_MOTION_DDOT":0}]
